IRIDIUM 126             
1 42809U 17039G   25176.42221091 -.00000002  00000+0 -76933-5 0  9991
2 42809  86.3992 142.7851 0002406  86.5320 273.6151 14.34217387418813
IRIDIUM 124             
1 42810U 17039H   25176.48388677  .00000272  00000+0  74921-4 0  9994
2 42810  86.4481  79.5003 0002169  77.7330 282.4114 14.43279897423664
IRIDIUM 128             
1 42811U 17039J   25176.27340988  .00000034  00000+0  50929-5 0  9994
2 42811  86.3992 174.3183 0002164  79.8333 280.3106 14.34217789418827
IRIDIUM 121             
1 42812U 17039K   25176.37146884  .00000112  00000+0  32941-4 0  9995
2 42812  86.3989 142.8314 0002179  85.7639 274.3805 14.34217769418682
IRIDIUM 133             
1 42955U 17061A   25176.09581875  .00000016  00000+0 -14825-5 0  9996
2 42955  86.4000 174.5012 0002256  87.2807 272.8647 14.34217628403597
IRIDIUM 100             
1 42956U 17061B   25176.22901346 -.00000089  00000+0 -38932-4 0  9996
2 42956  86.3997 174.3728 0002329  84.2034 275.9428 14.34217146403613
IRIDIUM 122             
1 42957U 17061C   25176.26706817  .00000025  00000+0  19108-5 0  9990
2 42957  86.3993 174.3560 0002422  87.1005 273.0468 14.34217957403622
IRIDIUM 129             
1 42958U 17061D   25176.29243793 -.00000045  00000+0 -22956-4 0  9991
2 42958  86.3998 174.4086 0002365  98.5831 261.5633 14.34217234403647
